{
  "links" : {
    "next" : "https://api.nasa.gov/neo/rest/v1/feed?start_date=2011-07-16&end_date=2011-07-16&detailed=true&api_key=t0TVs3DtDT2H8Oy2Zy8m2eVrNsAVKAexjcZXUckd",
    "prev" : "https://api.nasa.gov/neo/rest/v1/feed?start_date=2011-07-14&end_date=2011-07-14&detailed=true&api_key=t0TVs3DtDT2H8Oy2Zy8m2eVrNsAVKAexjcZXUckd",
    "self" : "https://api.nasa.gov/neo/rest/v1/feed?start_date=2011-07-15&end_date=2011-07-15&detailed=true&api_key=t0TVs3DtDT2H8Oy2Zy8m2eVrNsAVKAexjcZXUckd"
  },
  "element_count" : 6,
  "near_earth_objects" : {
    "2011-07-15" : [ {
      "links" : {
        "self" : "https://api.nasa.gov/neo/rest/v1/neo/3516633?api_key=t0TVs3DtDT2H8Oy2Zy8m2eVrNsAVKAexjcZXUckd"
      },
      "neo_reference_id" : "3516633",
      "name" : "(2010 HA)",
      "nasa_jpl_url" : "http://ssd.jpl.nasa.gov/sbdb.cgi?sstr=3516633",
      "absolute_magnitude_h" : 23.9,
      "estimated_diameter" : {
        "kilometers" : {
          "estimated_diameter_min" : 0.04411182,
          "estimated_diameter_max" : 0.0986370281
        },
        "meters" : {
          "estimated_diameter_min" : 44.1118199997,
          "estimated_diameter_max" : 98.6370281305
        },
        "miles" : {
          "estimated_diameter_min" : 0.0274098057,
          "estimated_diameter_max" : 0.0612901888
        },
        "feet" : {
          "estimated_diameter_min" : 144.7238235278,
          "estimated_diameter_max" : 323.6123073718
        }
      },
      "is_potentially_hazardous_asteroid" : false,
      "close_approach_data" : [ {
        "close_approach_date" : "2011-07-15",
        "epoch_date_close_approach" : 1310713200000,
        "relative_velocity" : {
          "kilometers_per_second" : "3.9363628377",
          "kilometers_per_hour" : "14170.9062156875",
          "miles_per_hour" : "8805.2500316309"
        },
        "miss_distance" : {
          "astronomical" : "0.1031899428",
          "lunar" : "40.1408882141",
          "kilometers" : "15436996",
          "miles" : "9592105"
        },
        "orbiting_body" : "Earth"
      } ],
      "orbital_data" : {
        "orbit_id" : "16",
        "orbit_determination_date" : "2017-04-06 08:57:45",
        "orbit_uncertainty" : "3",
        "minimum_orbit_intersection" : ".033403",
        "jupiter_tisserand_invariant" : "6.263",
        "epoch_osculation" : "2458000.5",
        "eccentricity" : ".1958554556292902",
        "semi_major_axis" : ".959836264179655",
        "inclination" : "2.182534748129634",
        "ascending_node_longitude" : "251.305836700883",
        "orbital_period" : "343.4742297275729",
        "perihelion_distance" : ".7718470953292329",
        "perihelion_argument" : "185.7069522579697",
        "aphelion_distance" : "1.147825433030077",
        "perihelion_time" : "2457945.773077998060",
        "mean_anomaly" : "57.36002941567072",
        "mean_motion" : "1.048113566731147",
        "equinox" : "J2000"
      }
    }, {
      "links" : {
        "self" : "https://api.nasa.gov/neo/rest/v1/neo/3645045?api_key=t0TVs3DtDT2H8Oy2Zy8m2eVrNsAVKAexjcZXUckd"
      },
      "neo_reference_id" : "3645045",
      "name" : "(2013 NJ15)",
      "nasa_jpl_url" : "http://ssd.jpl.nasa.gov/sbdb.cgi?sstr=3645045",
      "absolute_magnitude_h" : 22.7,
      "estimated_diameter" : {
        "kilometers" : {
          "estimated_diameter_min" : 0.0766575574,
          "estimated_diameter_max" : 0.1714115092
        },
        "meters" : {
          "estimated_diameter_min" : 76.6575573531,
          "estimated_diameter_max" : 171.4115092306
        },
        "miles" : {
          "estimated_diameter_min" : 0.0476327831,
          "estimated_diameter_max" : 0.1065101409
        },
        "feet" : {
          "estimated_diameter_min" : 251.5011804664,
          "estimated_diameter_max" : 562.3737359442
        }
      },
      "is_potentially_hazardous_asteroid" : false,
      "close_approach_data" : [ {
        "close_approach_date" : "2011-07-15",
        "epoch_date_close_approach" : 1310713200000,
        "relative_velocity" : {
          "kilometers_per_second" : "8.4661803052",
          "kilometers_per_hour" : "30478.2490988997",
          "miles_per_hour" : "18937.9987248135"
        },
        "miss_distance" : {
          "astronomical" : "0.3056367465",
          "lunar" : "118.8926925659",
          "kilometers" : "45722604",
          "miles" : "28410710"
        },
        "orbiting_body" : "Earth"
      } ],
      "orbital_data" : {
        "orbit_id" : "17",
        "orbit_determination_date" : "2017-04-06 08:45:22",
        "orbit_uncertainty" : "1",
        "minimum_orbit_intersection" : ".276777",
        "jupiter_tisserand_invariant" : "4.356",
        "epoch_osculation" : "2458000.5",
        "eccentricity" : ".1756150375554079",
        "semi_major_axis" : "1.566253804111975",
        "inclination" : "16.77049958406965",
        "ascending_node_longitude" : "298.504137734897",
        "orbital_period" : "715.9647408192396",
        "perihelion_distance" : "1.29119608348155",
        "perihelion_argument" : "8.208285777427932",
        "aphelion_distance" : "1.8413115247424",
        "perihelion_time" : "2457932.482455269033",
        "mean_anomaly" : "34.20044969690812",
        "mean_motion" : ".5028180571966038",
        "equinox" : "J2000"
      }
    }, {
      "links" : {
        "self" : "https://api.nasa.gov/neo/rest/v1/neo/3747499?api_key=t0TVs3DtDT2H8Oy2Zy8m2eVrNsAVKAexjcZXUckd"
      },
      "neo_reference_id" : "3747499",
      "name" : "(2016 FC)",
      "nasa_jpl_url" : "http://ssd.jpl.nasa.gov/sbdb.cgi?sstr=3747499",
      "absolute_magnitude_h" : 26.6,
      "estimated_diameter" : {
        "kilometers" : {
          "estimated_diameter_min" : 0.0127219879,
          "estimated_diameter_max" : 0.0284472297
        },
        "meters" : {
          "estimated_diameter_min" : 12.7219878539,
          "estimated_diameter_max" : 28.4472296503
        },
        "miles" : {
          "estimated_diameter_min" : 0.0079050743,
          "estimated_diameter_max" : 0.0176762835
        },
        "feet" : {
          "estimated_diameter_min" : 41.7388066307,
          "estimated_diameter_max" : 93.330808926
        }
      },
      "is_potentially_hazardous_asteroid" : false,
      "close_approach_data" : [ {
        "close_approach_date" : "2011-07-15",
        "epoch_date_close_approach" : 1310713200000,
        "relative_velocity" : {
          "kilometers_per_second" : "8.0161974599",
          "kilometers_per_hour" : "28858.3108557938",
          "miles_per_hour" : "17931.4320981459"
        },
        "miss_distance" : {
          "astronomical" : "0.4620515465",
          "lunar" : "179.7380523682",
          "kilometers" : "69121928",
          "miles" : "42950376"
        },
        "orbiting_body" : "Earth"
      } ],
      "orbital_data" : {
        "orbit_id" : "20",
        "orbit_determination_date" : "2017-04-06 08:27:20",
        "orbit_uncertainty" : "5",
        "minimum_orbit_intersection" : "1.49015E-5",
        "jupiter_tisserand_invariant" : "5.347",
        "epoch_osculation" : "2458000.5",
        "eccentricity" : ".242790994306769",
        "semi_major_axis" : "1.176018888625113",
        "inclination" : ".8910944323936782",
        "ascending_node_longitude" : "353.0909426175274",
        "orbital_period" : "465.8218680745218",
        "perihelion_distance" : ".8904920933322803",
        "perihelion_argument" : "118.2347632577746",
        "aphelion_distance" : "1.461545683917945",
        "perihelion_time" : "2457875.421268490301",
        "mean_anomaly" : "96.66429686870762",
        "mean_motion" : ".7728276078752222",
        "equinox" : "J2000"
      }
    } ]
  }
}